      2.10          N: GNSS NAV DATA                        RINEX VERSION / TYPE
fic2rin                                 12/19/2020 00:17:21 PGM / RUN BY / DATE
                                                            END OF HEADER
 9 20 12 18  6  0  0.0-3.026989288628e-04-4.433786671143e-12 0.000000000000e+00
    7.900000000000e+01 2.062500000000e+00 4.735911555440e-09-2.034303854635e+00
    8.009374141693e-08 2.027199603617e-03 8.542090654373e-06 5.153598409653e+03
    4.536000000000e+05 1.676380634308e-08 1.510388214395e+00 7.450580596924e-09
    9.525674215252e-01 2.112500000000e+02 1.781404100688e+00-8.006047769739e-09
    4.157316026042e-10 1.000000000000e+00 2.136000000000e+03 0.000000000000e+00
    2.400000000000e+00 0.000000000000e+00 1.396983861923e-09 7.900000000000e+01
    4.464000000000e+05 4.000000000000e+00
30 20 12 18  6  0  0.0-3.542047925293e-04-6.252776074689e-12 0.000000000000e+00
    1.700000000000e+01-4.437500000000e+00 5.315578558040e-09 9.723718593510e-01
   -1.564621925354e-07 4.722595214844e-03 6.180256605148e-06 5.153764598846e+03
    4.536000000000e+05-1.490116119385e-08 2.603406886781e+00 7.450580596924e-08
    9.374908350334e-01 2.480000000000e+02-2.845536749010e+00-8.392849595874e-09
   -2.792973481413e-10 1.000000000000e+00 2.136000000000e+03 0.000000000000e+00
    2.400000000000e+00 0.000000000000e+00 3.725290298462e-09 1.700000000000e+01
    4.464000000000e+05 4.000000000000e+00
24 20 12 18  6  0  0.0 4.968140274286e-06-5.684341886081e-13 0.000000000000e+00
    2.000000000000e+01-2.625000000000e+00 5.375223899651e-09 1.954543038883e+00
   -1.974403858185e-07 1.071925205179e-02 6.224960088730e-06 5.153616289139e+03
    4.536000000000e+05-2.272427082062e-07 2.508250303607e+00-5.774199962616e-08
    9.355030000035e-01 2.467500000000e+02 7.113223818895e-01-8.383920652519e-09
   -1.914365455291e-10 1.000000000000e+00 2.136000000000e+03 0.000000000000e+00
    2.400000000000e+00 0.000000000000e+00 2.793967723846e-09 2.000000000000e+01
    4.464000000000e+05 4.000000000000e+00
32 20 12 18  6  0  0.0 8.808448910713e-06 2.501110429876e-12 0.000000000000e+00
    1.000000000000e+01-6.250000000000e+00 4.563047212089e-09-1.721033319032e+00
   -2.831220626831e-07 4.332977114245e-03 8.916482329369e-06 5.153611667633e+03
    4.536000000000e+05 7.823109626770e-08 1.519716776315e+00-1.098960638046e-07
    9.566048603750e-01 2.078750000000e+02-2.466863155941e+00-7.815325539679e-09
    4.864488339751e-10 1.000000000000e+00 2.136000000000e+03 0.000000000000e+00
    2.400000000000e+00 0.000000000000e+00 4.656612873077e-10 1.000000000000e+01
    4.464000000000e+05 4.000000000000e+00
31 20 12 18  6  0  0.0-8.830986917019e-05-2.387423592154e-12 0.000000000000e+00
    5.600000000000e+01 1.562500000000e-01 4.850916345851e-09 5.566697630729e-01
    1.359730958939e-07 9.956523543224e-03 6.208196282387e-06 5.153699682236e+03
    4.536000000000e+05 1.322478055954e-07 2.600210097713e+00 1.825392246246e-07
    9.566065690633e-01 2.556562500000e+02 2.197718350648e-01-8.148553705684e-09
   -2.057228548969e-10 1.000000000000e+00 2.136000000000e+03 0.000000000000e+00
    2.400000000000e+00 0.000000000000e+00-1.303851604462e-08 5.600000000000e+01
    4.464000000000e+05 4.000000000000e+00
29 20 12 18  6  0  0.0-2.582571469247e-04-7.389644451905e-12 0.000000000000e+00
    8.700000000000e+01 1.118437500000e+02 4.111242678331e-09-2.436000925582e+00
    5.852431058884e-06 1.451549935155e-03 4.580244421959e-06 5.153713298798e+03
    4.536000000000e+05 1.303851604462e-08-1.543467779445e+00 7.450580596924e-09
    9.846767032342e-01 3.067187500000e+02 2.239755420152e+00-8.001047561461e-09
    2.628680923683e-10 1.000000000000e+00 2.136000000000e+03 0.000000000000e+00
    2.400000000000e+00 0.000000000000e+00-1.024454832077e-08 8.700000000000e+01
    4.464000000000e+05 4.000000000000e+00
16 20 12 18  6  0  0.0-2.519953995943e-04-5.456968210638e-12 0.000000000000e+00
    4.900000000000e+01 6.165625000000e+01 3.950521697943e-09-1.553893234416e+00
    3.032386302948e-06 1.189421140589e-02 1.014955341816e-05 5.153621627808e+03
    4.536000000000e+05 1.396983861923e-07-2.572225333590e+00-1.713633537292e-07
    9.761230065956e-01 1.858437500000e+02 6.325475363496e-01-7.558886286526e-09
   -2.039370662260e-10 1.000000000000e+00 2.136000000000e+03 0.000000000000e+00
    2.400000000000e+00 0.000000000000e+00-1.071020960808e-08 4.900000000000e+01
    4.464000000000e+05 4.000000000000e+00
27 20 12 18  6  0  0.0-3.724033012986e-05-8.071765478235e-12 0.000000000000e+00
    5.500000000000e+01 1.131875000000e+02 4.171959493144e-09-2.459729696746e+00
    5.682930350304e-06 8.685604087077e-03 5.722045898438e-06 5.153677366257e+03
    4.536000000000e+05 5.960464477539e-08-1.615338447479e+00-1.844018697739e-07
    9.768659393017e-01 2.781250000000e+02 5.649688373570e-01-7.939973588913e-09
    2.953694461802e-10 1.000000000000e+00 2.136000000000e+03 0.000000000000e+00
    2.400000000000e+00 0.000000000000e+00 1.862645149231e-09 5.500000000000e+01
    4.464000000000e+05 4.000000000000e+00
15 20 12 18  6  0  0.0-1.825159415603e-04 2.614797267597e-12 0.000000000000e+00
    4.400000000000e+01-1.875000000000e+00 5.164500836475e-09 2.843248799262e+00
   -1.788139343262e-07 1.308009098284e-02 9.207054972649e-06 5.153788316727e+03
    4.536000000000e+05 3.725290298462e-08 1.415501900947e+00-9.685754776001e-08
    9.282099159659e-01 1.830625000000e+02 9.592927397417e-01-8.023905656449e-09
    5.160929259133e-10 1.000000000000e+00 2.136000000000e+03 0.000000000000e+00
    2.400000000000e+00 0.000000000000e+00-1.071020960808e-08 4.400000000000e+01
    4.464000000000e+05 4.000000000000e+00
12 20 12 18  6  0  0.0 2.538179978728e-05-5.229594535194e-12 0.000000000000e+00
    3.500000000000e+01 7.059375000000e+01 4.038382500555e-09 3.041195207359e-01
    3.470107913017e-06 8.090935880318e-03 1.024641096592e-05 5.153589864731e+03
    4.536000000000e+05-5.401670932770e-08-2.591033449595e+00 4.284083843231e-08
    9.759814195322e-01 1.933125000000e+02 1.165397166098e+00-7.784252816804e-09
   -3.146559638267e-10 1.000000000000e+00 2.136000000000e+03 0.000000000000e+00
    2.400000000000e+00 0.000000000000e+00-1.257285475731e-08 3.500000000000e+01
    4.464000000000e+05 4.000000000000e+00
10 20 12 18  6  0  0.0-1.860084012151e-05-8.753886504564e-12 0.000000000000e+00
    9.500000000000e+01-1.182500000000e+02 4.182317067436e-09-3.725438068592e-01
   -6.260350346565e-06 6.295400438830e-03 9.194016456604e-06 5.153675384521e+03
    4.536000000000e+05 7.450580596924e-08 4.771380622355e-01 9.685754776001e-08
    9.678463398278e-01 2.054062500000e+02-2.639784426554e+00-7.941759377584e-09
   -9.928985010651e-11 1.000000000000e+00 2.136000000000e+03 0.000000000000e+00
    2.400000000000e+00 0.000000000000e+00 2.328306436539e-09 9.500000000000e+01
    4.464000000000e+05 4.000000000000e+00
23 20 12 18  6  0  0.0 1.108678989112e-04 2.842170943040e-12 0.000000000000e+00
    4.100000000000e+01-1.261250000000e+02 4.313036798152e-09 1.500415838319e+00
   -6.569549441338e-06 1.102391048335e-03 9.167939424515e-06 5.153641643524e+03
    4.536000000000e+05 2.793967723846e-08 4.545167244460e-01-5.587935447693e-09
    9.628033730137e-01 2.014375000000e+02 2.249913690690e+00-7.925330121811e-09
   -8.857511808063e-11 1.000000000000e+00 2.136000000000e+03 0.000000000000e+00
    2.400000000000e+00 0.000000000000e+00-8.381903171539e-09 4.100000000000e+01
    4.464000000000e+05 4.000000000000e+00
22 20 12 18  6  0  0.0-7.134452462196e-04 6.139089236967e-12 0.000000000000e+00
    8.700000000000e+01-1.143125000000e+02 4.917704842146e-09 2.805244545787e+00
   -5.949288606644e-06 6.780673749745e-03 7.893890142441e-06 5.153658544540e+03
    4.536000000000e+05 8.009374141693e-08 3.863339309875e-01 5.774199962616e-08
    9.332921123912e-01 2.103750000000e+02-1.064860420808e+00-8.092479941415e-09
   -5.893102614235e-11 1.000000000000e+00 2.136000000000e+03 0.000000000000e+00
    2.400000000000e+00 0.000000000000e+00-1.816079020500e-08 8.700000000000e+01
    4.464000000000e+05 4.000000000000e+00
19 20 12 18  6  0  0.0-6.383378058672e-05 5.002220859751e-12 0.000000000000e+00
    5.400000000000e+01 9.109375000000e+01 4.192317483994e-09 8.156349070392e-03
    4.848465323448e-06 8.998404024169e-03 4.315748810768e-06 5.153609872818e+03
    4.536000000000e+05-1.192092895508e-07-1.510242523846e+00-2.793967723846e-08
    9.812827040320e-01 3.093437500000e+02 1.759877879966e+00-8.190698318319e-09
    1.860791795162e-10 1.000000000000e+00 2.136000000000e+03 0.000000000000e+00
    2.400000000000e+00 0.000000000000e+00-1.536682248116e-08 5.400000000000e+01
    4.464000000000e+05 4.000000000000e+00
21 20 12 18  6  0  0.0 7.864786311984e-05 3.524291969370e-12 0.000000000000e+00
    7.300000000000e+01-2.853125000000e+01 4.708053252173e-09-2.200931013840e+00
   -9.275972843170e-07 2.405152283609e-02 8.661299943924e-07 5.153746313095e+03
    4.536000000000e+05 1.806765794754e-07-6.378471384936e-01 4.321336746216e-07
    9.556047188751e-01 3.556562500000e+02-1.229011412687e+00-8.095337203288e-09
   -1.785788670980e-11 1.000000000000e+00 2.136000000000e+03 0.000000000000e+00
    2.400000000000e+00 0.000000000000e+00-1.024454832077e-08 7.300000000000e+01
    4.464000000000e+05 4.000000000000e+00
13 20 12 18  6  0  0.0 7.622083649039e-05 3.979039320257e-12 0.000000000000e+00
    8.600000000000e+01 1.296875000000e+01 4.404469178106e-09-3.133182391680e+00
    6.891787052155e-07 4.881080822088e-03 8.080154657364e-06 5.153679641724e+03
    4.536000000000e+05-1.862645149231e-09 1.656549392514e+00 4.470348358154e-08
    9.674832845222e-01 2.273750000000e+02 1.048764015105e+00-7.772109453841e-09
    4.782342060886e-10 1.000000000000e+00 2.136000000000e+03 0.000000000000e+00
    3.400000000000e+00 0.000000000000e+00-1.164153218269e-08 8.600000000000e+01
    4.464000000000e+05 4.000000000000e+00
